*******************************************************************************
Ephemeris / WWW_USER Mon Jul 15 19:16:53 2024 Pasadena, USA      / Horizons    
*******************************************************************************
Target body name: (2018 WV1)                      {source: JPL#17}
Center body name: Earth (399)                     {source: DE441}
Center-site name: Gemini South Obs., Cerro Pachon
*******************************************************************************
Start time      : A.D. 2018-Oct-04 22:54:00.0000 UT      
Stop  time      : A.D. 2018-Oct-05 10:08:00.0000 UT      
Step-size       : 1 minutes
*******************************************************************************
Target pole/equ : undefined
Target radii    : undefined                                                    
Center geodetic : 289.2634, -30.2406227, 2.71233  {E-lon(deg),Lat(deg),Alt(km)}
Center cylindric: 289.2634,5517.21435,-3194.81213 {E-lon(deg),Dxy(km),Dz(km)}
Center pole/equ : ITRF93                          {East-longitude positive}
Center radii    : 6378.137, 6378.137, 6356.752 km {Equator_a, b, pole_c}       
Target primary  : Sun
Vis. interferer : MOON (R_eq= 1737.400) km        {source: DE441}
Rel. light bend : Sun                             {source: DE441}
Rel. lght bnd GM: 1.3271E+11 km^3/s^2                                          
Small-body perts: Yes                             {source: SB441-N16}
Atmos refraction: NO (AIRLESS)
RA format       : HMS
Time format     : CAL 
Calendar mode   : Mixed Julian/Gregorian
RTS-only print  : NO       
EOP file        : eop.240715.p241008                                           
EOP coverage    : DATA-BASED 1962-JAN-20 TO 2024-JUL-15. PREDICTS-> 2024-OCT-07
Units conversion: 1 au= 149597870.700 km, c= 299792.458 km/s, 1 day= 86400.0 s 
Table cut-offs 1: Elevation (-90.0deg=NO ),Airmass (>38.000=NO), Daylight (YES)
Table cut-offs 2: Solar elongation (  0.0,180.0=NO ),Local Hour Angle( 0.0=NO )
Table cut-offs 3: RA/DEC angular rate (     0.0=NO )                           
*******************************************************************************
Initial IAU76/J2000 heliocentric ecliptic osculating elements (au, days, deg.):
  EPOCH=  2458458.5 ! 2018-Dec-06.00 (TDB)         Residual RMS= .12928        
   EC= .06869100257422787  QR= .9715505345748198   TP= 2458416.866413563       
   OM= 248.5061090469913   W=  141.3742304527303   IN= 1.905403987972275       
  Equivalent ICRF heliocentric cartesian coordinates (au, au/d):
   X= 2.787163119783287E-01  Y= 8.719775267121872E-01  Z= 3.748421051204766E-01
  VX=-1.676682657337402E-02 VY= 5.516972965834891E-03 VZ= 1.749720915605096E-03
Asteroid physical parameters (km, seconds, rotational period in hours):        
   GM= n.a.                RAD= n.a.               ROTPER= n.a.                
   H= 30.3                 G= .150                 B-V= n.a.                   
                           ALBEDO= n.a.            STYP= n.a.                  
*******************************************************************************
 Date__(UT)__HR:MN     R.A._________(ICRF)_________DEC
******************************************************
$$SOE
 2018-Oct-05 05:03     01 55 22.846481 +19 25 28.79534
 2018-Oct-05 05:04     01 55 22.824737 +19 25 29.16620
 2018-Oct-05 05:05     01 55 22.802967 +19 25 29.53642
 2018-Oct-05 05:06     01 55 22.781171 +19 25 29.90601
 2018-Oct-05 05:07     01 55 22.759350 +19 25 30.27495
 2018-Oct-05 05:08     01 55 22.737504 +19 25 30.64326
 2018-Oct-05 05:09     01 55 22.715635 +19 25 31.01092
 2018-Oct-05 05:10     01 55 22.693743 +19 25 31.37795
 2018-Oct-05 05:11     01 55 22.671828 +19 25 31.74433
 2018-Oct-05 05:12     01 55 22.649890 +19 25 32.11007
 2018-Oct-05 05:13     01 55 22.627932 +19 25 32.47517
 2018-Oct-05 05:14     01 55 22.605953 +19 25 32.83962
 2018-Oct-05 05:15     01 55 22.583953 +19 25 33.20344
 2018-Oct-05 05:16     01 55 22.561934 +19 25 33.56661
 2018-Oct-05 05:17     01 55 22.539895 +19 25 33.92913
 2018-Oct-05 05:18     01 55 22.517838 +19 25 34.29101
 2018-Oct-05 05:19     01 55 22.495763 +19 25 34.65225
 2018-Oct-05 05:20     01 55 22.473671 +19 25 35.01284
 2018-Oct-05 05:21     01 55 22.451562 +19 25 35.37279
 2018-Oct-05 05:22     01 55 22.429437 +19 25 35.73209
 2018-Oct-05 05:23     01 55 22.407297 +19 25 36.09074
 2018-Oct-05 05:24     01 55 22.385141 +19 25 36.44875
 2018-Oct-05 05:25     01 55 22.362971 +19 25 36.80611
 2018-Oct-05 05:26     01 55 22.340788 +19 25 37.16283
 2018-Oct-05 05:27     01 55 22.318591 +19 25 37.51890
 2018-Oct-05 05:28     01 55 22.296382 +19 25 37.87432
 2018-Oct-05 05:29     01 55 22.274160 +19 25 38.22909
 2018-Oct-05 05:30     01 55 22.251928 +19 25 38.58322
 2018-Oct-05 05:31     01 55 22.229684 +19 25 38.93670
 2018-Oct-05 05:32     01 55 22.207430 +19 25 39.28953
 2018-Oct-05 05:33     01 55 22.185167 +19 25 39.64171
 2018-Oct-05 05:34     01 55 22.162895 +19 25 39.99324
 2018-Oct-05 05:35     01 55 22.140614 +19 25 40.34412
 2018-Oct-05 05:36     01 55 22.118326 +19 25 40.69436
 2018-Oct-05 05:37     01 55 22.096030 +19 25 41.04395
 2018-Oct-05 05:38     01 55 22.073728 +19 25 41.39288
 2018-Oct-05 05:39     01 55 22.051419 +19 25 41.74117
 2018-Oct-05 05:40     01 55 22.029105 +19 25 42.08881
 2018-Oct-05 05:41     01 55 22.006787 +19 25 42.43580
 2018-Oct-05 05:42     01 55 21.984464 +19 25 42.78214
 2018-Oct-05 05:43     01 55 21.962137 +19 25 43.12783
 2018-Oct-05 05:44  t  01 55 21.939808 +19 25 43.47287
 2018-Oct-05 05:45     01 55 21.917476 +19 25 43.81726
 2018-Oct-05 05:46     01 55 21.895142 +19 25 44.16100
 2018-Oct-05 05:47     01 55 21.872807 +19 25 44.50409
 2018-Oct-05 05:48     01 55 21.850471 +19 25 44.84654
 2018-Oct-05 05:49     01 55 21.828135 +19 25 45.18833
 2018-Oct-05 05:50     01 55 21.805800 +19 25 45.52947
 2018-Oct-05 05:51     01 55 21.783466 +19 25 45.86996
 2018-Oct-05 05:52     01 55 21.761133 +19 25 46.20981
 2018-Oct-05 05:53     01 55 21.738803 +19 25 46.54900
 2018-Oct-05 05:54     01 55 21.716476 +19 25 46.88755
 2018-Oct-05 05:55     01 55 21.694152 +19 25 47.22544
 2018-Oct-05 05:56     01 55 21.671833 +19 25 47.56269
 2018-Oct-05 05:57     01 55 21.649518 +19 25 47.89928
 2018-Oct-05 05:58     01 55 21.627208 +19 25 48.23523
 2018-Oct-05 05:59     01 55 21.604905 +19 25 48.57053
 2018-Oct-05 06:00     01 55 21.582607 +19 25 48.90518
 2018-Oct-05 06:01     01 55 21.560317 +19 25 49.23918
 2018-Oct-05 06:02     01 55 21.538035 +19 25 49.57253
 2018-Oct-05 06:03     01 55 21.515761 +19 25 49.90524
 2018-Oct-05 06:04     01 55 21.493496 +19 25 50.23729
 2018-Oct-05 06:05     01 55 21.471240 +19 25 50.56870
 2018-Oct-05 06:06     01 55 21.448994 +19 25 50.89946
 2018-Oct-05 06:07     01 55 21.426759 +19 25 51.22957
 2018-Oct-05 06:08     01 55 21.404536 +19 25 51.55904
 2018-Oct-05 06:09     01 55 21.382324 +19 25 51.88786
 2018-Oct-05 06:10     01 55 21.360124 +19 25 52.21603
 2018-Oct-05 06:11     01 55 21.337938 +19 25 52.54356
 2018-Oct-05 06:12     01 55 21.315765 +19 25 52.87044
 2018-Oct-05 06:13     01 55 21.293607 +19 25 53.19667
 2018-Oct-05 06:14     01 55 21.271463 +19 25 53.52226
 2018-Oct-05 06:15     01 55 21.249335 +19 25 53.84721
 2018-Oct-05 06:16     01 55 21.227222 +19 25 54.17150
 2018-Oct-05 06:17     01 55 21.205127 +19 25 54.49516
 2018-Oct-05 06:18     01 55 21.183048 +19 25 54.81817
 2018-Oct-05 06:19     01 55 21.160987 +19 25 55.14054
 2018-Oct-05 06:20     01 55 21.138945 +19 25 55.46226
 2018-Oct-05 06:21     01 55 21.116922 +19 25 55.78334
 2018-Oct-05 06:22     01 55 21.094918 +19 25 56.10378
 2018-Oct-05 06:23     01 55 21.072934 +19 25 56.42357
 2018-Oct-05 06:24     01 55 21.050971 +19 25 56.74273
 2018-Oct-05 06:25     01 55 21.029030 +19 25 57.06124
 2018-Oct-05 06:26     01 55 21.007110 +19 25 57.37912
 2018-Oct-05 06:27     01 55 20.985213 +19 25 57.69635
 2018-Oct-05 06:28     01 55 20.963338 +19 25 58.01294
 2018-Oct-05 06:29     01 55 20.941488 +19 25 58.32889
 2018-Oct-05 06:30     01 55 20.919662 +19 25 58.64421
 2018-Oct-05 06:31     01 55 20.897860 +19 25 58.95889
 2018-Oct-05 06:32     01 55 20.876085 +19 25 59.27292
 2018-Oct-05 06:33     01 55 20.854335 +19 25 59.58633
 2018-Oct-05 06:34     01 55 20.832611 +19 25 59.89909
 2018-Oct-05 06:35     01 55 20.810915 +19 26 00.21122
 2018-Oct-05 06:36     01 55 20.789247 +19 26 00.52272
 2018-Oct-05 06:37     01 55 20.767607 +19 26 00.83357
 2018-Oct-05 06:38     01 55 20.745996 +19 26 01.14380
 2018-Oct-05 06:39     01 55 20.724414 +19 26 01.45339
 2018-Oct-05 06:40     01 55 20.702863 +19 26 01.76235
 2018-Oct-05 06:41     01 55 20.681342 +19 26 02.07068
 2018-Oct-05 06:42     01 55 20.659853 +19 26 02.37837
 2018-Oct-05 06:43     01 55 20.638395 +19 26 02.68544
 2018-Oct-05 06:44     01 55 20.616970 +19 26 02.99187
 2018-Oct-05 06:45     01 55 20.595578 +19 26 03.29767
 2018-Oct-05 06:46     01 55 20.574219 +19 26 03.60285
 2018-Oct-05 06:47     01 55 20.552895 +19 26 03.90740
 2018-Oct-05 06:48     01 55 20.531605 +19 26 04.21132
 2018-Oct-05 06:49     01 55 20.510351 +19 26 04.51461
 2018-Oct-05 06:50     01 55 20.489132 +19 26 04.81728
 2018-Oct-05 06:51     01 55 20.467950 +19 26 05.11932
 2018-Oct-05 06:52     01 55 20.446805 +19 26 05.42074
 2018-Oct-05 06:53     01 55 20.425698 +19 26 05.72153
 2018-Oct-05 06:54     01 55 20.404629 +19 26 06.02170
 2018-Oct-05 06:55     01 55 20.383598 +19 26 06.32125
 2018-Oct-05 06:56     01 55 20.362607 +19 26 06.62018
 2018-Oct-05 06:57     01 55 20.341656 +19 26 06.91849
 2018-Oct-05 06:58     01 55 20.320745 +19 26 07.21618
 2018-Oct-05 06:59     01 55 20.299875 +19 26 07.51325
 2018-Oct-05 07:00     01 55 20.279047 +19 26 07.80970
 2018-Oct-05 07:01     01 55 20.258261 +19 26 08.10554
 2018-Oct-05 07:02     01 55 20.237518 +19 26 08.40076
 2018-Oct-05 07:03     01 55 20.216818 +19 26 08.69536
 2018-Oct-05 07:04     01 55 20.196162 +19 26 08.98935
 2018-Oct-05 07:05     01 55 20.175550 +19 26 09.28273
